OBJECT_NAME,OBJECT_ID,EPOCH,MEAN_MOTION,ECCENTRICITY,INCLINATION,RA_OF_ASC_NODE,ARG_OF_PERICENTER,MEAN_ANOMALY,EPHEMERIS_TYPE,CLASSIFICATION_TYPE,NORAD_CAT_ID,ELEMENT_SET_NO,REV_AT_EPOCH,BSTAR,MEAN_MOTION_DOT,MEAN_MOTION_DDOT
STARLINK-37655,2026-110U,2026-06-04T06:40:00.836544,15.80456622,.00014349,97.2836,351.4647,86.3570,273.7862,0,U,69142,999,360,-.22810923E-2,-.410388E-2,0
STARLINK-37636,2026-110V,2026-06-04T06:38:52.493280,15.80859028,.00014891,97.2840,351.4655,89.3987,270.7452,0,U,69143,999,360,.78566411E-3,.153325E-2,0
STARLINK-37638,2026-110W,2026-06-04T06:37:47.383104,15.80886951,.00014672,97.2837,351.4670,93.4528,266.6908,0,U,69144,999,360,.10392931E-2,.204325E-2,0
STARLINK-37657,2026-110X,2026-06-04T06:00:04.000320,15.78344178,.00014333,97.2851,351.4397,74.2306,137.0546,0,U,69145,999,363,-.5278556E-2,-.823028E-2,0
STARLINK-37639,2026-110Y,2026-06-04T06:35:37.542912,15.80872070,.00013335,97.2844,351.4695,88.9256,271.2165,0,U,69146,999,360,.83627526E-3,.163499E-2,0
STARLINK-37661,2026-110Z,2026-06-04T06:00:04.000320,15.74092486,.00020981,97.2851,351.4359,84.9687,119.9558,0,U,69147,999,363,-.21068144E-1,-.2613268E-1,0
STARLINK-37395,2026-111A,2026-06-04T06:00:04.000320,15.80892402,.00011737,53.1630,216.4968,91.2829,284.9422,0,U,69148,999,346,.17768868E-4,.2812E-4,0
STARLINK-37346,2026-111B,2026-06-04T06:00:04.000320,15.80851787,.00011201,53.1587,216.4849,99.6291,282.5497,0,U,69149,999,346,.54505635E-3,.108127E-2,0
STARLINK-37332,2026-111C,2026-06-04T06:00:04.000320,15.80875030,.00012507,53.1588,216.4684,95.3545,294.5887,0,U,69150,999,346,.30037681E-3,.58997E-3,0
STARLINK-37297,2026-111D,2026-06-04T06:00:04.000320,15.80863955,.0001201,53.1589,216.4819,74.3230,309.0803,0,U,69151,999,346,.38594476E-3,.76116E-3,0
STARLINK-37317,2026-111E,2026-06-04T06:00:04.000320,15.80874201,.00014687,53.1628,216.4587,74.2585,320.3275,0,U,69152,999,346,.18312179E-3,.35594E-3,0
STARLINK-37374,2026-111F,2026-06-04T06:00:04.000320,15.80855181,.00011225,53.1589,216.4414,92.9302,309.9014,0,U,69153,999,346,.47295043E-3,.93586E-3,0
STARLINK-37235,2026-111G,2026-06-04T06:00:04.000320,15.80869388,.00011943,53.1590,216.4490,84.8093,314.3947,0,U,69154,999,346,.31186632E-3,.61281E-3,0
STARLINK-37329,2026-111H,2026-06-04T06:00:04.000320,15.80856318,.00010795,53.1589,216.4641,100.6285,291.3916,0,U,69155,999,346,.49043075E-3,.97115E-3,0
STARLINK-37345,2026-111J,2026-06-04T06:00:04.000320,15.80882016,.00013382,53.1631,216.4470,78.4399,321.8095,0,U,69156,999,346,.12241606E-3,.23537E-3,0
STARLINK-37353,2026-111K,2026-06-04T06:00:04.000320,15.80856870,.00008573,53.1590,216.4444,72.1706,329.3232,0,U,69157,999,346,.39382792E-3,.77673E-3,0
STARLINK-37363,2026-111L,2026-06-04T06:00:04.000320,15.80932014,.00008234,53.1589,216.4202,95.3017,317.9857,0,U,69158,999,346,-.29475302E-3,-.58636E-3,0
STARLINK-37343,2026-111M,2026-06-04T06:00:04.000320,15.80861488,.00011461,53.1591,216.4113,95.3813,322.1937,0,U,69159,999,346,.35493729E-3,.69885E-3,0
STARLINK-37328,2026-111N,2026-06-04T06:00:04.000320,15.80856515,.00013387,53.1592,216.4182,78.4220,335.5987,0,U,69160,999,346,.41970704E-3,.82873E-3,0
STARLINK-37311,2026-111P,2026-06-04T06:00:04.000320,15.80872506,.0001212,53.1591,216.4052,89.9372,330.3219,0,U,69161,999,346,.28757796E-3,.5643E-3,0
STARLINK-36286,2026-111Q,2026-06-04T06:00:04.000320,15.80868016,.0001017,53.1592,216.3966,93.2873,331.2280,0,U,69162,999,346,.31872821E-3,.6265E-3,0
STARLINK-37196,2026-111R,2026-06-04T06:00:04.000320,15.78354280,.00007596,53.1593,216.3779,131.0164,302.4392,0,U,69163,999,346,-.28670931E-2,-.478009E-2,0
STARLINK-36288,2026-111S,2026-06-04T06:00:04.000320,15.81400974,.00012799,53.1591,216.3773,78.2041,355.3453,0,U,69164,999,346,-.99405667E-2,-.1773339E-1,0
STARLINK-37445,2026-111T,2026-06-04T06:00:04.000320,15.80862288,.00010601,53.1592,216.3728,88.7677,347.1768,0,U,69165,999,346,.36207766E-3,.7132E-3,0
STARLINK-37491,2026-111U,2026-06-04T06:00:04.000320,15.79619143,.00010388,53.1592,216.3604,79.3711,2.3705,0,U,69166,999,346,-.11811209E-1,-.1917406E-1,0
STARLINK-37474,2026-111V,2026-06-04T06:00:04.000320,15.81257204,.00010064,53.1594,216.3401,97.9164,353.7610,0,U,69167,999,346,-.57346814E-2,-.1024205E-1,0
STARLINK-37469,2026-111W,2026-06-04T06:00:04.000320,15.80886761,.00009343,53.1591,216.3314,81.5413,14.4733,0,U,69168,999,346,.91976185E-4,.17502E-3,0
STARLINK-37515,2026-111X,2026-06-04T06:00:04.000320,15.81058323,.00008189,53.1592,216.3226,90.3880,9.8649,0,U,69169,999,346,-.24252583E-2,-.458724E-2,0
STARLINK-37437,2026-111Y,2026-06-04T06:00:04.000320,15.80863981,.00012336,53.1590,216.3161,68.5287,34.4981,0,U,69170,999,346,.31700804E-3,.62294E-3,0
STARLINK-37392,2026-111Z,2026-06-04T06:00:04.000320,15.80867016,.00012641,53.1622,216.2683,95.3503,30.5703,0,U,69171,999,346,.27735094E-3,.54371E-3,0
