STARLINK-37655          
1 69142U 26110U   26155.27778746 -.00410388  00000+0 -22811-2 0  9990
2 69142  97.2836 351.4647 0001434  86.3570 273.7862 15.80456622  3603
STARLINK-37636          
1 69143U 26110V   26155.27699645  .00153325  00000+0  78566-3 0  9993
2 69143  97.2840 351.4655 0001489  89.3987 270.7452 15.80859028  3602
STARLINK-37638          
1 69144U 26110W   26155.27624286  .00204325  00000+0  10393-2 0  9993
2 69144  97.2837 351.4670 0001467  93.4528 266.6908 15.80886951  3604
STARLINK-37657          
1 69145U 26110X   26155.25004630 -.00823028  00000+0 -52786-2 0  9998
2 69145  97.2851 351.4397 0001433  74.2306 137.0546 15.78344178  3630
STARLINK-37639          
1 69146U 26110Y   26155.27474008  .00163499  00000+0  83628-3 0  9998
2 69146  97.2844 351.4695 0001333  88.9256 271.2165 15.80872070  3604
STARLINK-37661          
1 69147U 26110Z   26155.25004630 -.02613268  00000+0 -21068-1 0  9993
2 69147  97.2851 351.4359 0002098  84.9687 119.9558 15.74092486  3638
STARLINK-37395          
1 69148U 26111A   26155.25004630  .00002812  00000+0  17769-4 0  9994
2 69148  53.1630 216.4968 0001173  91.2829 284.9422 15.80892402  3460
STARLINK-37346          
1 69149U 26111B   26155.25004630  .00108127  00000+0  54506-3 0  9990
2 69149  53.1587 216.4849 0001120  99.6291 282.5497 15.80851787  3464
STARLINK-37332          
1 69150U 26111C   26155.25004630  .00058997  00000+0  30038-3 0  9995
2 69150  53.1588 216.4684 0001250  95.3545 294.5887 15.80875030  3466
STARLINK-37297          
1 69151U 26111D   26155.25004630  .00076116  00000+0  38594-3 0  9994
2 69151  53.1589 216.4819 0001201  74.3230 309.0803 15.80863955  3465
STARLINK-37317          
1 69152U 26111E   26155.25004630  .00035594  00000+0  18312-3 0  9996
2 69152  53.1628 216.4587 0001468  74.2585 320.3275 15.80874201  3464
STARLINK-37374          
1 69153U 26111F   26155.25004630  .00093586  00000+0  47295-3 0  9994
2 69153  53.1589 216.4414 0001122  92.9302 309.9014 15.80855181  3461
STARLINK-37235          
1 69154U 26111G   26155.25004630  .00061281  00000+0  31187-3 0  9995
2 69154  53.1590 216.4490 0001194  84.8093 314.3947 15.80869388  3463
STARLINK-37329          
1 69155U 26111H   26155.25004630  .00097115  00000+0  49043-3 0  9991
2 69155  53.1589 216.4641 0001079 100.6285 291.3916 15.80856318  3461
STARLINK-37345          
1 69156U 26111J   26155.25004630  .00023537  00000+0  12242-3 0  9990
2 69156  53.1631 216.4470 0001338  78.4399 321.8095 15.80882016  3467
STARLINK-37353          
1 69157U 26111K   26155.25004630  .00077673  00000+0  39383-3 0  9996
2 69157  53.1590 216.4444 0000857  72.1706 329.3232 15.80856870  3466
STARLINK-37363          
1 69158U 26111L   26155.25004630 -.00058636  00000+0 -29475-3 0  9998
2 69158  53.1589 216.4202 0000823  95.3017 317.9857 15.80932014  3463
STARLINK-37343          
1 69159U 26111M   26155.25004630  .00069885  00000+0  35494-3 0  9993
2 69159  53.1591 216.4113 0001146  95.3813 322.1937 15.80861488  3464
STARLINK-37328          
1 69160U 26111N   26155.25004630  .00082873  00000+0  41971-3 0  9994
2 69160  53.1592 216.4182 0001338  78.4220 335.5987 15.80856515  3468
STARLINK-37311          
1 69161U 26111P   26155.25004630  .00056430  00000+0  28758-3 0  9993
2 69161  53.1591 216.4052 0001212  89.9372 330.3219 15.80872506  3469
STARLINK-36286          
1 69162U 26111Q   26155.25004630  .00062650  00000+0  31873-3 0  9997
2 69162  53.1592 216.3966 0001017  93.2873 331.2280 15.80868016  3460
STARLINK-37196          
1 69163U 26111R   26155.25004630 -.00478009  00000+0 -28671-2 0  9990
2 69163  53.1593 216.3779 0000759 131.0164 302.4392 15.78354280  3464
STARLINK-36288          
1 69164U 26111S   26155.25004630 -.01773339  00000+0 -99406-2 0  9990
2 69164  53.1591 216.3773 0001279  78.2041 355.3453 15.81400974  3462
STARLINK-37445          
1 69165U 26111T   26155.25004630  .00071320  00000+0  36208-3 0  9991
2 69165  53.1592 216.3728 0001060  88.7677 347.1768 15.80862288  3460
STARLINK-37491          
1 69166U 26111U   26155.25004630 -.01917406  00000+0 -11811-1 0  9990
2 69166  53.1592 216.3604 0001038  79.3711   2.3705 15.79619143  3463
STARLINK-37474          
1 69167U 26111V   26155.25004630 -.01024205  00000+0 -57347-2 0  9992
2 69167  53.1594 216.3401 0001006  97.9164 353.7610 15.81257204  3461
STARLINK-37469          
1 69168U 26111W   26155.25004630  .00017502  00000+0  91976-4 0  9990
2 69168  53.1591 216.3314 0000934  81.5413  14.4733 15.80886761  3469
STARLINK-37515          
1 69169U 26111X   26155.25004630 -.00458724  00000+0 -24253-2 0  9990
2 69169  53.1592 216.3226 0000818  90.3880   9.8649 15.81058323  3460
STARLINK-37437          
1 69170U 26111Y   26155.25004630  .00062294  00000+0  31701-3 0  9990
2 69170  53.1590 216.3161 0001233  68.5287  34.4981 15.80863981  3464
STARLINK-37392          
1 69171U 26111Z   26155.25004630  .00054371  00000+0  27735-3 0  9990
2 69171  53.1622 216.2683 0001264  95.3503  30.5703 15.80867016  3464
